{
  "norad_id": 55961,
  "name": "STARLINK-5933",
  "history": [
    {
      "epoch": "2026-03-28T18:30:56.195136Z",
      "apogee_km": 574.3888409329202,
      "perigee_km": 569.687186539627,
      "latitude_deg": -1.7040741621357512e-05,
      "longitude_deg": 112.33250248264562,
      "height_km": 574.3160244005842,
      "semi_major_axis_km": 6950.175013736273,
      "eccentricity": 0.00033824,
      "inclination_deg": 70.0003,
      "raan_deg": 216.2538,
      "arg_perigee_deg": 273.6538,
      "mean_anomaly_deg": 86.4234,
      "mean_motion_rev_day": 14.98335781
    },
    {
      "epoch": "2026-03-30T00:57:29.892384Z",
      "apogee_km": 574.3530482502238,
      "perigee_km": 569.760360250456,
      "latitude_deg": -7.319436485743073e-05,
      "longitude_deg": 11.243440417779372,
      "height_km": 574.3805267806435,
      "semi_major_axis_km": 6950.19370425034,
      "eccentricity": 0.0003304,
      "inclination_deg": 70.0006,
      "raan_deg": 213.0554,
      "arg_perigee_deg": 272.5947,
      "mean_anomaly_deg": 87.4833,
      "mean_motion_rev_day": 14.98329737
    }
  ]
}